BEESAT-4                
1 41619U 16040W   22162.88683173  .00011428  00000+0  38372-3 0  9990
2 41619  97.2174 213.6649 0011295 132.1634 228.0568 15.30953492319872
CAS-2T & KS-1Q          
1 41847U 16066G   22162.77833366  .00000500  00000+0  85861-4 0  9995
2 41847  98.5511 227.4553 0363013 226.7321 130.3048 14.38572802293533
NAYIF-1 (EO-88)         
1 42017U 17008BX  22162.76088710  .00012670  00000+0  38194-3 0  9993
2 42017  97.2696 228.9574 0003530 251.5288 108.5572 15.34439087296205
ZHUHAI-1 02 (CAS-4B)    
1 42759U 17034B   22162.83491076  .00002609  00000+0  16261-3 0  9998
2 42759  43.0191   3.6710 0010197 258.2443 221.4058 15.11858925275506
ZHUHAI-1 01 (CAS-4A)    
1 42761U 17034D   22162.85172286  .00002621  00000+0  16291-3 0  9999
2 42761  43.0193   2.3677 0010573 260.5322 114.0535 15.11950991275513
MAX VALIER SAT          
1 42778U 17036P   22162.88431101  .00006426  00000+0  24554-3 0  9994
2 42778  97.2056 204.1766 0010143 357.1362   2.9817 15.26902580276056
RADFXSAT (FOX-1B)       
1 43017U 17073E   22162.69769824  .00001843  00000+0  14337-3 0  9993
2 43017  97.6762  57.1268 0248045 206.4084 152.4313 14.81360330246268
FOX-1D (AO-92)          
1 43137U 18004AC  22162.86107263  .00006999  00000+0  24882-3 0  9996
2 43137  97.3691 238.0675 0008032  34.3583 325.8175 15.29282002245491
DIWATA-2B               
1 43678U 18084H   22162.81662340  .00000820  00000+0  86368-4 0  9996
2 43678  97.9697 296.0156 0008791 310.2432  49.8007 14.92164252197018
ES'HAIL 2               
1 43700U 18090A   22162.84202220  .00000159  00000+0  00000+0 0  9998
2 43700   0.0142  37.5389 0001313  51.5470 139.9937  1.00272169 12976
FOX-1CLIFF (AO-95)      
1 43770U 18099N   22162.83967429  .00001409  00000+0  12923-3 0  9992
2 43770  97.6207 229.3355 0012847 296.6190  63.3715 14.96405469192171
ITASAT 1                
1 43786U 18099AE  22162.90036401  .00000949  00000+0  88279-4 0  9990
2 43786  97.6236 230.3102 0013450 288.8565  71.1198 14.96558104192225
JY1SAT (JO-97)          
1 43803U 18099AX  22162.71946266  .00001967  00000+0  17545-3 0  9996
2 43803  97.6193 229.8872 0013222 287.2241  72.7534 14.97041291192210
UWE-4                   
1 43880U 18111E   22162.72334881  .00001650  00000+0  14407-3 0  9994
2 43880  97.6687  69.1349 0011827 346.3447  13.7454 14.98120788188841
NEXUS (FO-99)           
1 43937U 19003F   22162.80841129  .00009216  00000+0  31247-3 0  9992
2 43937  97.1307 196.3794 0021462 168.8490 191.3232 15.30530483189118
PSAT2 (NO-104)          
1 44354U 19036R   22162.82534670  .00055469 -58316-5  49962-3 0  9998
2 44354  28.5262 217.3639 0232437 267.0503  90.3476 15.38992704163818
JAISAT-1                
1 44419U 19038F   22162.89712058  .00005252  00000+0  26622-3 0  9990
2 44419  97.6348 132.9758 0020520 145.6999 214.5563 15.17223529162213
DUCHIFAT-3              
1 44854U 19089C   22162.92414888  .00002029  00000+0  16191-3 0  9992
2 44854  36.9641 133.1233 0007621 186.1382 202.2222 15.01034183137107
CAS-6 (TO-108)          
1 44881U 19093C   22162.83849733  .00000336  00000+0  49318-4 0  9995
2 44881  97.8919 242.1270 0014391 199.7009 160.3642 14.81720251133944
RS-44 & BREEZE-KM R/B   
1 44909U 19096E   22162.87448423  .00000017  00000+0  29385-4 0  9992
2 44909  82.5222 233.9807 0216764 333.0645  25.9333 12.79713300114791
ORBITAL FACTORY 2 (OF-2)
1 45113U 19071C   22162.15967308  .00018789  00000+0  39789-3 0  9995
2 45113  51.6381  90.3257 0010388 140.5876 219.5868 15.45087577132405
HUSKYSAT-1 (HO-107)     
1 45119U 19071J   22162.16177299  .00016554  00000+0  36233-3 0  9993
2 45119  51.6381  90.3151 0010218 137.6527 222.5250 15.44211054132391
BY70-2                  
1 45857U 20042B   22162.88154411  .00004383  00000+0  58938-3 0  9995
2 45857  97.9537 239.7730 0012235 131.4848 228.7423 14.79720510104632
SALSAT                  
1 46495U 20068K   22162.84245759  .00001924  00000+0  14170-3 0  9992
2 46495  97.7303 104.1405 0015069 299.5920  60.3803 15.04490406 93343
BY70-3                  
1 46839U 20079N   22162.92901512  .00015699  00000+0  37312-3 0  9998
2 46839  97.1979 235.0953 0004663   9.1866 105.2956 15.41734818 89399
RADFXSAT-2 (AO-109)     
1 47311U 21002C   22162.89641190  .00005789  00000+0  23901-3 0  9998
2 47311  60.6864  23.1651 0015066 329.6865  30.3351 15.25199586 77610
UVSQ-SAT                
1 47438U 21006AB  22162.66837289  .00004172  00000+0  22278-3 0  9994
2 47438  97.4376 221.7972 0010237 297.7941  62.2253 15.15622581 76409
DIY-1 (ARDUIQUBE)       
1 47963U 21022AH  22162.65997398  .00011937  00000+0  67129-3 0  9993
2 47963  97.5341  64.0873 0018242 145.3344 214.9080 15.13281768 66074
XW-3 (CAS-9)            
1 50466U 21131B   22162.88579127  .00000065  00000+0  35763-4 0  9997
2 50466  98.5804 240.1421 0005338 152.9504 207.1962 14.38497892 24116
TEVEL-3                 
1 50988U 22002E   22162.76016719  .00004668  00000+0  25804-3 0  9991
2 50988  97.4810 229.8369 0011293  86.7782  61.4177 15.14321536 22555
TEVEL-8                 
1 50989U 22002F   22162.76514708  .00004706  00000+0  26047-3 0  9996
2 50989  97.4824 229.8589 0011321  85.9409  62.6073 15.14270578 22551
TEVEL-5                 
1 50998U 22002Q   22162.78056936  .00005219  00000+0  28412-3 0  9990
2 50998  97.4806 229.9428 0012816  82.8629  53.5216 15.14796692 22563
TEVEL-6                 
1 50999U 22002R   22162.78027693  .00005255  00000+0  28603-3 0  9991
2 50999  97.4793 229.9404 0012843  82.5442  54.0201 15.14801069 22568
TEVEL-1                 
1 51013U 22002AF  22162.76298558  .00004680  00000+0  25889-3 0  9991
2 51013  97.4808 229.8246 0011084  86.0800  65.9666 15.14298233 22557
TEVEL-7                 
1 51062U 22002CG  22162.76628600  .00004706  00000+0  26057-3 0  9997
2 51062  97.4818 229.8495 0011251  85.4403  62.4596 15.14260559 22550
TEVEL-4                 
1 51063U 22002CH  22162.76671204  .00004732  00000+0  26203-3 0  9998
2 51063  97.4818 229.8475 0011185  85.3527  62.4826 15.14253617 22554
TEVEL-2                 
1 51069U 22002CP  22162.81721203  .00004693  00000+0  25943-3 0  9991
2 51069  97.4803 229.8830 0011197  86.5732   7.1191 15.14314522 22568
